{"type": "FeatureCollection", "features": [ {"type": "Feature", "properties": {"norad_id": 38779, "name": "GSAT-10 (GAGAN/PRN 128)", "group": "gnss", "lat": -0.022048049653277793, "lon": -108.67932985633792, "alt_km": 35791.40024808753, "timestamp": "2025-12-02T06:27:53.256352+00:00", "meta": {"OBJECT_NAME": "GSAT-10 (GAGAN/PRN 128)", "OBJECT_ID": "2012-051B", "EPOCH": "2025-12-01T19:01:39.503712", "MEAN_MOTION": 1.00269349, "ECCENTRICITY": 0.0002639, "INCLINATION": 0.0364, "RA_OF_ASC_NODE": 261.9825, "ARG_OF_PERICENTER": 234.8798, "MEAN_ANOMALY": 302.437, "EPHEMERIS_TYPE": 0, "CLASSIFICATION_TYPE": "U", "NORAD_CAT_ID": 38779, "ELEMENT_SET_NO": 999, "REV_AT_EPOCH": 4811, "BSTAR": 0, "MEAN_MOTION_DOT": -1.43e-06, "MEAN_MOTION_DDOT": 0}, "tle": {"line1": "1 38779U 12051B   25335.79281833 -.00000143  00000+0  00000+0 0  9999", "line2": "2 38779   0.0364 261.9825 0002639 234.8798 302.4370  1.00269349 48110"}}, "geometry": {"type": "Point", "coordinates": [-108.67932985633792, -0.022048049653277793]}}, {"type": "Feature", "properties": {"norad_id": 38833, "name": "GPS BIIF-3  (PRN 24)", "group": "gnss", "lat": -52.39062040319793, "lon": 77.99059661313339, "alt_km": 20562.18779072668, "timestamp": "2025-12-02T06:27:53.256364+00:00", "meta": {"OBJECT_NAME": "GPS BIIF-3  (PRN 24)", "OBJECT_ID": "2012-053A", "EPOCH": "2025-11-30T21:15:05.262912", "MEAN_MOTION": 2.00564831, "ECCENTRICITY": 0.01754484, "INCLINATION": 53.5557, "RA_OF_ASC_NODE": 151.7243, "ARG_OF_PERICENTER": 63.8273, "MEAN_ANOMALY": 298.0063, "EPHEMERIS_TYPE": 0, "CLASSIFICATION_TYPE": "U", "NORAD_CAT_ID": 38833, "ELEMENT_SET_NO": 999, "REV_AT_EPOCH": 9546, "BSTAR": 0, "MEAN_MOTION_DOT": 1.23e-06, "MEAN_MOTION_DDOT": 0}, "tle": {"line1": "1 38833U 12053A   25334.88547758  .00000123  00000+0  00000+0 0  9999", "line2": "2 38833  53.5557 151.7243 0175448  63.8273 298.0063  2.00564831 95469"}}, "geometry": {"type": "Point", "coordinates": [77.99059661313339, -52.39062040319793]}}, {"type": "Feature", "properties": {"norad_id": 38857, "name": "GSAT0103 (GALILEO-FM3)", "group": "gnss", "lat": -50.63070048296097, "lon": 50.62868237749916, "alt_km": 23221.814592768093, "timestamp": "2025-12-02T06:27:53.256378+00:00", "meta": {"OBJECT_NAME": "GSAT0103 (GALILEO-FM3)", "OBJECT_ID": "2012-055A", "EPOCH": "2025-11-28T20:42:38.723616", "MEAN_MOTION": 1.70473322, "ECCENTRICITY": 0.00022412, "INCLINATION": 55.6842, "RA_OF_ASC_NODE": 107.0477, "ARG_OF_PERICENTER": 266.7022, "MEAN_ANOMALY": 93.2527, "EPHEMERIS_TYPE": 0, "CLASSIFICATION_TYPE": "U", "NORAD_CAT_ID": 38857, "ELEMENT_SET_NO": 999, "REV_AT_EPOCH": 8159, "BSTAR": 0, "MEAN_MOTION_DOT": 5.5e-07, "MEAN_MOTION_DDOT": 0}, "tle": {"line1": "1 38857U 12055A   25332.86294819  .00000055  00000+0  00000+0 0  9994", "line2": "2 38857  55.6842 107.0477 0002241 266.7022  93.2527  1.70473322 81593"}}, "geometry": {"type": "Point", "coordinates": [50.62868237749916, -50.63070048296097]}}, {"type": "Feature", "properties": {"norad_id": 38953, "name": "BEIDOU-2 G6 (C02)", "group": "gnss", "lat": 0.2032237770878945, "lon": -107.68956930166536, "alt_km": 35798.93989391234, "timestamp": "2025-12-02T06:27:53.256390+00:00", "meta": {"OBJECT_NAME": "BEIDOU-2 G6 (C02)", "OBJECT_ID": "2012-059A", "EPOCH": "2025-12-01T19:21:04.956768", "MEAN_MOTION": 1.00271055, "ECCENTRICITY": 0.0007266, "INCLINATION": 3.919, "RA_OF_ASC_NODE": 75.6094, "ARG_OF_PERICENTER": 290.8925, "MEAN_ANOMALY": 78.7424, "EPHEMERIS_TYPE": 0, "CLASSIFICATION_TYPE": "U", "NORAD_CAT_ID": 38953, "ELEMENT_SET_NO": 999, "REV_AT_EPOCH": 4793, "BSTAR": 0, "MEAN_MOTION_DOT": -1.55e-06, "MEAN_MOTION_DDOT": 0}, "tle": {"line1": "1 38953U 12059A   25335.80630737 -.00000155  00000+0  00000+0 0  9997", "line2": "2 38953   3.9190  75.6094 0007266 290.8925  78.7424  1.00271055 47935"}}, "geometry": {"type": "Point", "coordinates": [-107.68956930166536, 0.2032237770878945]}}, {"type": "Feature", "properties": {"norad_id": 38977, "name": "LUCH 5B (SDCM/PRN 125)", "group": "gnss", "lat": 9.900535144101461, "lon": 152.03233312394866, "alt_km": 35784.67823877457, "timestamp": "2025-12-02T06:27:53.256401+00:00", "meta": {"OBJECT_NAME": "LUCH 5B (SDCM/PRN 125)", "OBJECT_ID": "2012-061A", "EPOCH": "2025-12-01T15:39:07.645248", "MEAN_MOTION": 1.00269115, "ECCENTRICITY": 0.00075781, "INCLINATION": 10.0556, "RA_OF_ASC_NODE": 51.8055, "ARG_OF_PERICENTER": 188.4335, "MEAN_ANOMALY": 48.9483, "EPHEMERIS_TYPE": 0, "CLASSIFICATION_TYPE": "U", "NORAD_CAT_ID": 38977, "ELEMENT_SET_NO": 999, "REV_AT_EPOCH": 4762, "BSTAR": 0, "MEAN_MOTION_DOT": -1.22e-06, "MEAN_MOTION_DDOT": 0}, "tle": {"line1": "1 38977U 12061A   25335.65217182 -.00000122  00000+0  00000+0 0  9998", "line2": "2 38977  10.0556  51.8055 0007578 188.4335  48.9483  1.00269115 47626"}}, "geometry": {"type": "Point", "coordinates": [152.03233312394866, 9.900535144101461]}}, {"type": "Feature", "properties": {"norad_id": 39155, "name": "COSMOS 2485 (747)", "group": "gnss", "lat": -14.675276597517968, "lon": 73.30661981538587, "alt_km": 19159.10358993844, "timestamp": "2025-12-02T06:27:53.256417+00:00", "meta": {"OBJECT_NAME": "COSMOS 2485 (747)", "OBJECT_ID": "2013-019A", "EPOCH": "2025-11-24T07:30:54.982368", "MEAN_MOTION": 2.13103115, "ECCENTRICITY": 0.0024274, "INCLINATION": 65.3036, "RA_OF_ASC_NODE": 80.4871, "ARG_OF_PERICENTER": 228.0776, "MEAN_ANOMALY": 131.7167, "EPHEMERIS_TYPE": 0, "CLASSIFICATION_TYPE": "U", "NORAD_CAT_ID": 39155, "ELEMENT_SET_NO": 999, "REV_AT_EPOCH": 9791, "BSTAR": 0, "MEAN_MOTION_DOT": 1.2e-07, "MEAN_MOTION_DDOT": 0}, "tle": {"line1": "1 39155U 13019A   25328.31313637  .00000012  00000+0  00000+0 0  9995", "line2": "2 39155  65.3036  80.4871 0024274 228.0776 131.7167  2.13103115 97916"}}, "geometry": {"type": "Point", "coordinates": [73.30661981538587, -14.675276597517968]}}, {"type": "Feature", "properties": {"norad_id": 39166, "name": "GPS BIIF-4  (PRN 27)", "group": "gnss", "lat": 14.54790158099901, "lon": -72.42987052689872, "alt_km": 19865.92457296207, "timestamp": "2025-12-02T06:27:53.256428+00:00", "meta": {"OBJECT_NAME": "GPS BIIF-4  (PRN 27)", "OBJECT_ID": "2013-023A", "EPOCH": "2025-12-01T05:56:59.212320", "MEAN_MOTION": 2.00565063, "ECCENTRICITY": 0.0137183, "INCLINATION": 54.6621, "RA_OF_ASC_NODE": 277.0355, "ARG_OF_PERICENTER": 48.4881, "MEAN_ANOMALY": 312.6778, "EPHEMERIS_TYPE": 0, "CLASSIFICATION_TYPE": "U", "NORAD_CAT_ID": 39166, "ELEMENT_SET_NO": 999, "REV_AT_EPOCH": 9191, "BSTAR": 0, "MEAN_MOTION_DOT": -4e-07, "MEAN_MOTION_DDOT": 0}, "tle": {"line1": "1 39166U 13023A   25335.24790755 -.00000040  00000+0  00000+0 0  9994", "line2": "2 39166  54.6621 277.0355 0137183  48.4881 312.6778  2.00565063 91917"}}, "geometry": {"type": "Point", "coordinates": [-72.42987052689872, 14.54790158099901]}}, {"type": "Feature", "properties": {"norad_id": 39199, "name": "IRNSS-1A", "group": "gnss", "lat": 13.20324105741807, "lon": -132.66660586458022, "alt_km": 35702.075961939525, "timestamp": "2025-12-02T06:27:53.256442+00:00", "meta": {"OBJECT_NAME": "IRNSS-1A", "OBJECT_ID": "2013-034A", "EPOCH": "2025-11-29T20:16:50.456352", "MEAN_MOTION": 1.00278191, "ECCENTRICITY": 0.00217208, "INCLINATION": 35.2795, "RA_OF_ASC_NODE": 66.7394, "ARG_OF_PERICENTER": 185.4975, "MEAN_ANOMALY": 176.0627, "EPHEMERIS_TYPE": 0, "CLASSIFICATION_TYPE": "U", "NORAD_CAT_ID": 39199, "ELEMENT_SET_NO": 999, "REV_AT_EPOCH": 4537, "BSTAR": 0, "MEAN_MOTION_DOT": 8.1e-07, "MEAN_MOTION_DDOT": 0}, "tle": {"line1": "1 39199U 13034A   25333.84502843  .00000081  00000+0  00000+0 0  9999", "line2": "2 39199  35.2795  66.7394 0021720 185.4975 176.0627  1.00278191 45377"}}, "geometry": {"type": "Point", "coordinates": [-132.66660586458022, 13.20324105741807]}}, {"type": "Feature", "properties": {"norad_id": 39533, "name": "GPS BIIF-5  (PRN 30)", "group": "gnss", "lat": 16.903755887107188, "lon": 170.29554639732314, "alt_km": 20368.628750797, "timestamp": "2025-12-02T06:27:53.256454+00:00", "meta": {"OBJECT_NAME": "GPS BIIF-5  (PRN 30)", "OBJECT_ID": "2014-008A", "EPOCH": "2025-11-29T05:57:39.103200", "MEAN_MOTION": 2.00573621, "ECCENTRICITY": 0.00788834, "INCLINATION": 53.629, "RA_OF_ASC_NODE": 157.4751, "ARG_OF_PERICENTER": 226.3092, "MEAN_ANOMALY": 133.082, "EPHEMERIS_TYPE": 0, "CLASSIFICATION_TYPE": "U", "NORAD_CAT_ID": 39533, "ELEMENT_SET_NO": 999, "REV_AT_EPOCH": 8567, "BSTAR": 0, "MEAN_MOTION_DOT": 1.23e-06, "MEAN_MOTION_DDOT": 0}, "tle": {"line1": "1 39533U 14008A   25333.24836925  .00000123  00000+0  00000+0 0  9995", "line2": "2 39533  53.6290 157.4751 0078883 226.3092 133.0820  2.00573621 85677"}}, "geometry": {"type": "Point", "coordinates": [170.29554639732314, 16.903755887107188]}}, {"type": "Feature", "properties": {"norad_id": 39617, "name": "ASTRA 5B (EGNOS/PRN 123)", "group": "gnss", "lat": 0.03212526856705359, "lon": -168.20376555780385, "alt_km": 35779.47254213246, "timestamp": "2025-12-02T06:27:53.256466+00:00", "meta": {"OBJECT_NAME": "ASTRA 5B (EGNOS/PRN 123)", "OBJECT_ID": "2014-011B", "EPOCH": "2025-12-01T19:03:44.119296", "MEAN_MOTION": 1.00273178, "ECCENTRICITY": 0.0004739, "INCLINATION": 0.0823, "RA_OF_ASC_NODE": 54.4069, "ARG_OF_PERICENTER": 209.6926, "MEAN_ANOMALY": 116.2682, "EPHEMERIS_TYPE": 0, "CLASSIFICATION_TYPE": "U", "NORAD_CAT_ID": 39617, "ELEMENT_SET_NO": 999, "REV_AT_EPOCH": 4268, "BSTAR": 0, "MEAN_MOTION_DOT": 1.59e-06, "MEAN_MOTION_DDOT": 0}, "tle": {"line1": "1 39617U 14011B   25335.79426064  .00000159  00000+0  00000+0 0  9992", "line2": "2 39617   0.0823  54.4069 0004739 209.6926 116.2682  1.00273178 42681"}}, "geometry": {"type": "Point", "coordinates": [-168.20376555780385, 0.03212526856705359]}}]}